{"type": "FeatureCollection", "features": [ {"type": "Feature", "properties": {"norad_id": 66957, "name": "HULIANWANG DIGUI-118", "group": "last-30-days", "lat": 10.652710142843118, "lon": -15.543795049210852, "alt_km": 1014.0162807190727, "timestamp": "2025-12-19T04:59:47.032960+00:00", "meta": {"OBJECT_NAME": "HULIANWANG DIGUI-118", "OBJECT_ID": "2025-287E", "EPOCH": "2025-12-18T14:53:59.369856", "MEAN_MOTION": 13.67900054, "ECCENTRICITY": 0.00077413, "INCLINATION": 86.4947, "RA_OF_ASC_NODE": 344.0095, "ARG_OF_PERICENTER": 174.0723, "MEAN_ANOMALY": 186.0529, "EPHEMERIS_TYPE": 0, "CLASSIFICATION_TYPE": "U", "NORAD_CAT_ID": 66957, "ELEMENT_SET_NO": 999, "REV_AT_EPOCH": 133, "BSTAR": 0.00014230709, "MEAN_MOTION_DOT": 1.37e-06, "MEAN_MOTION_DDOT": 0}, "tle": {"line1": "1 66957U 25287E   25352.62082604  .00000137  00000+0  14231-3 0  9996", "line2": "2 66957  86.4947 344.0095 0007741 174.0723 186.0529 13.67900054  1334"}}, "geometry": {"type": "Point", "coordinates": [-15.543795049210852, 10.652710142843118]}}, {"type": "Feature", "properties": {"norad_id": 66958, "name": "CZ-6A R/B", "group": "last-30-days", "lat": -68.81772046544269, "lon": 172.71275477289612, "alt_km": 994.7810672364085, "timestamp": "2025-12-19T04:59:47.032971+00:00", "meta": {"OBJECT_NAME": "CZ-6A R/B", "OBJECT_ID": "2025-287F", "EPOCH": "2025-12-18T22:38:54.477312", "MEAN_MOTION": 13.94920679, "ECCENTRICITY": 0.01073176, "INCLINATION": 86.5059, "RA_OF_ASC_NODE": 343.742, "ARG_OF_PERICENTER": 83.5048, "MEAN_ANOMALY": 277.8331, "EPHEMERIS_TYPE": 0, "CLASSIFICATION_TYPE": "U", "NORAD_CAT_ID": 66958, "ELEMENT_SET_NO": 999, "REV_AT_EPOCH": 140, "BSTAR": 3.2732944e-05, "MEAN_MOTION_DOT": 6.5e-07, "MEAN_MOTION_DDOT": 0}, "tle": {"line1": "1 66958U 25287F   25352.94368608  .00000065  00000+0  32733-4 0  9991", "line2": "2 66958  86.5059 343.7420 0107317  83.5048 277.8331 13.94920679  1405"}}, "geometry": {"type": "Point", "coordinates": [172.71275477289612, -68.81772046544269]}}, {"type": "Feature", "properties": {"norad_id": 66959, "name": "STARLINK-35887", "group": "last-30-days", "lat": 4.399518090351328, "lon": -57.15896840136517, "alt_km": 317.99409282038596, "timestamp": "2025-12-19T04:59:47.032984+00:00", "meta": {"OBJECT_NAME": "STARLINK-35887", "OBJECT_ID": "2025-288A", "EPOCH": "2025-12-18T22:00:00.999936", "MEAN_MOTION": 15.85042835, "ECCENTRICITY": 0.00018544, "INCLINATION": 43.001, "RA_OF_ASC_NODE": 129.3712, "ARG_OF_PERICENTER": 279.1288, "MEAN_ANOMALY": 29.3197, "EPHEMERIS_TYPE": 0, "CLASSIFICATION_TYPE": "U", "NORAD_CAT_ID": 66959, "ELEMENT_SET_NO": 999, "REV_AT_EPOCH": 282, "BSTAR": -0.0054354815, "MEAN_MOTION_DOT": -0.01179936, "MEAN_MOTION_DDOT": 0}, "tle": {"line1": "1 66959U 25288A   25352.91667824 -.01179936  00000+0 -54355-2 0  9991", "line2": "2 66959  43.0010 129.3712 0001854 279.1288  29.3197 15.85042835  2829"}}, "geometry": {"type": "Point", "coordinates": [-57.15896840136517, 4.399518090351328]}}, {"type": "Feature", "properties": {"norad_id": 66960, "name": "STARLINK-35879", "group": "last-30-days", "lat": 3.1110075856018455, "lon": -55.77159747987055, "alt_km": 318.01463302346474, "timestamp": "2025-12-19T04:59:47.032994+00:00", "meta": {"OBJECT_NAME": "STARLINK-35879", "OBJECT_ID": "2025-288B", "EPOCH": "2025-12-18T22:00:00.999936", "MEAN_MOTION": 15.85067502, "ECCENTRICITY": 0.00018622, "INCLINATION": 43.001, "RA_OF_ASC_NODE": 129.3664, "ARG_OF_PERICENTER": 277.3852, "MEAN_ANOMALY": 32.9316, "EPHEMERIS_TYPE": 0, "CLASSIFICATION_TYPE": "U", "NORAD_CAT_ID": 66960, "ELEMENT_SET_NO": 999, "REV_AT_EPOCH": 282, "BSTAR": -0.0054214508, "MEAN_MOTION_DOT": -0.01178487, "MEAN_MOTION_DDOT": 0}, "tle": {"line1": "1 66960U 25288B   25352.91667824 -.01178487  00000+0 -54215-2 0  9998", "line2": "2 66960  43.0010 129.3664 0001862 277.3852  32.9316 15.85067502  2824"}}, "geometry": {"type": "Point", "coordinates": [-55.77159747987055, 3.1110075856018455]}}, {"type": "Feature", "properties": {"norad_id": 66961, "name": "STARLINK-35761", "group": "last-30-days", "lat": 1.7128659291128796, "lon": -54.271749677145756, "alt_km": 318.10274537108216, "timestamp": "2025-12-19T04:59:47.033006+00:00", "meta": {"OBJECT_NAME": "STARLINK-35761", "OBJECT_ID": "2025-288C", "EPOCH": "2025-12-18T22:00:00.999936", "MEAN_MOTION": 15.85096684, "ECCENTRICITY": 0.00018512, "INCLINATION": 43.0012, "RA_OF_ASC_NODE": 129.3616, "ARG_OF_PERICENTER": 277.6032, "MEAN_ANOMALY": 34.7401, "EPHEMERIS_TYPE": 0, "CLASSIFICATION_TYPE": "U", "NORAD_CAT_ID": 66961, "ELEMENT_SET_NO": 999, "REV_AT_EPOCH": 282, "BSTAR": -0.0054765172, "MEAN_MOTION_DOT": -0.0119067, "MEAN_MOTION_DDOT": 0}, "tle": {"line1": "1 66961U 25288C   25352.91667824 -.01190670  00000+0 -54765-2 0  9997", "line2": "2 66961  43.0012 129.3616 0001851 277.6032  34.7401 15.85096684  2823"}}, "geometry": {"type": "Point", "coordinates": [-54.271749677145756, 1.7128659291128796]}}, {"type": "Feature", "properties": {"norad_id": 66962, "name": "STARLINK-35874", "group": "last-30-days", "lat": -0.11228564867872724, "lon": -52.31919824734704, "alt_km": 318.28093364173674, "timestamp": "2025-12-19T04:59:47.033017+00:00", "meta": {"OBJECT_NAME": "STARLINK-35874", "OBJECT_ID": "2025-288D", "EPOCH": "2025-12-18T22:00:00.999936", "MEAN_MOTION": 15.85103069, "ECCENTRICITY": 0.0001934, "INCLINATION": 43.001, "RA_OF_ASC_NODE": 129.3547, "ARG_OF_PERICENTER": 276.7536, "MEAN_ANOMALY": 38.2669, "EPHEMERIS_TYPE": 0, "CLASSIFICATION_TYPE": "U", "NORAD_CAT_ID": 66962, "ELEMENT_SET_NO": 999, "REV_AT_EPOCH": 282, "BSTAR": -0.0055500289, "MEAN_MOTION_DOT": -0.01205288, "MEAN_MOTION_DDOT": 0}, "tle": {"line1": "1 66962U 25288D   25352.91667824 -.01205288  00000+0 -55500-2 0  9998", "line2": "2 66962  43.0010 129.3547 0001934 276.7536  38.2669 15.85103069  2827"}}, "geometry": {"type": "Point", "coordinates": [-52.31919824734704, -0.11228564867872724]}}, {"type": "Feature", "properties": {"norad_id": 66963, "name": "STARLINK-36133", "group": "last-30-days", "lat": -1.5378285678211403, "lon": -50.793957943264054, "alt_km": 318.3436443788287, "timestamp": "2025-12-19T04:59:47.033029+00:00", "meta": {"OBJECT_NAME": "STARLINK-36133", "OBJECT_ID": "2025-288E", "EPOCH": "2025-12-18T22:00:00.999936", "MEAN_MOTION": 15.8513403, "ECCENTRICITY": 0.00018457, "INCLINATION": 43.0011, "RA_OF_ASC_NODE": 129.3496, "ARG_OF_PERICENTER": 276.0573, "MEAN_ANOMALY": 41.0286, "EPHEMERIS_TYPE": 0, "CLASSIFICATION_TYPE": "U", "NORAD_CAT_ID": 66963, "ELEMENT_SET_NO": 999, "REV_AT_EPOCH": 282, "BSTAR": -0.0056469909, "MEAN_MOTION_DOT": -0.0122559, "MEAN_MOTION_DDOT": 0}, "tle": {"line1": "1 66963U 25288E   25352.91667824 -.01225590  00000+0 -56470-2 0  9994", "line2": "2 66963  43.0011 129.3496 0001845 276.0573  41.0286 15.85134030  2826"}}, "geometry": {"type": "Point", "coordinates": [-50.793957943264054, -1.5378285678211403]}}, {"type": "Feature", "properties": {"norad_id": 66964, "name": "STARLINK-36104", "group": "last-30-days", "lat": -3.0065282144276497, "lon": -49.219479544929165, "alt_km": 318.4813621450294, "timestamp": "2025-12-19T04:59:47.033039+00:00", "meta": {"OBJECT_NAME": "STARLINK-36104", "OBJECT_ID": "2025-288F", "EPOCH": "2025-12-18T22:00:00.999936", "MEAN_MOTION": 15.85161733, "ECCENTRICITY": 0.00019001, "INCLINATION": 43.0012, "RA_OF_ASC_NODE": 129.344, "ARG_OF_PERICENTER": 277.4368, "MEAN_ANOMALY": 41.7849, "EPHEMERIS_TYPE": 0, "CLASSIFICATION_TYPE": "U", "NORAD_CAT_ID": 66964, "ELEMENT_SET_NO": 999, "REV_AT_EPOCH": 282, "BSTAR": -0.0057486566, "MEAN_MOTION_DOT": -0.01246678, "MEAN_MOTION_DDOT": 0}, "tle": {"line1": "1 66964U 25288F   25352.91667824 -.01246678  00000+0 -57487-2 0  9994", "line2": "2 66964  43.0012 129.3440 0001900 277.4368  41.7849 15.85161733  2828"}}, "geometry": {"type": "Point", "coordinates": [-49.219479544929165, -3.0065282144276497]}}, {"type": "Feature", "properties": {"norad_id": 66965, "name": "STARLINK-36067", "group": "last-30-days", "lat": -4.473145748521252, "lon": -47.640328148642816, "alt_km": 318.60606618794463, "timestamp": "2025-12-19T04:59:47.033049+00:00", "meta": {"OBJECT_NAME": "STARLINK-36067", "OBJECT_ID": "2025-288G", "EPOCH": "2025-12-18T22:00:00.999936", "MEAN_MOTION": 15.85191008, "ECCENTRICITY": 0.00018423, "INCLINATION": 43.0013, "RA_OF_ASC_NODE": 129.3386, "ARG_OF_PERICENTER": 278.3513, "MEAN_ANOMALY": 43.0064, "EPHEMERIS_TYPE": 0, "CLASSIFICATION_TYPE": "U", "NORAD_CAT_ID": 66965, "ELEMENT_SET_NO": 999, "REV_AT_EPOCH": 282, "BSTAR": -0.0058872133, "MEAN_MOTION_DOT": -0.01274797, "MEAN_MOTION_DDOT": 0}, "tle": {"line1": "1 66965U 25288G   25352.91667824 -.01274797  00000+0 -58872-2 0  9997", "line2": "2 66965  43.0013 129.3386 0001842 278.3513  43.0064 15.85191008  2828"}}, "geometry": {"type": "Point", "coordinates": [-47.640328148642816, -4.473145748521252]}}, {"type": "Feature", "properties": {"norad_id": 66966, "name": "STARLINK-36139", "group": "last-30-days", "lat": -6.225484941857342, "lon": -45.739968696679036, "alt_km": 318.78394479787676, "timestamp": "2025-12-19T04:59:47.033059+00:00", "meta": {"OBJECT_NAME": "STARLINK-36139", "OBJECT_ID": "2025-288H", "EPOCH": "2025-12-18T22:00:00.999936", "MEAN_MOTION": 15.85202377, "ECCENTRICITY": 0.00018204, "INCLINATION": 43.0012, "RA_OF_ASC_NODE": 129.3321, "ARG_OF_PERICENTER": 278.1678, "MEAN_ANOMALY": 45.7739, "EPHEMERIS_TYPE": 0, "CLASSIFICATION_TYPE": "U", "NORAD_CAT_ID": 66966, "ELEMENT_SET_NO": 999, "REV_AT_EPOCH": 282, "BSTAR": -0.00605256, "MEAN_MOTION_DOT": -0.01306926, "MEAN_MOTION_DDOT": 0}, "tle": {"line1": "1 66966U 25288H   25352.91667824 -.01306926  00000+0 -60526-2 0  9997", "line2": "2 66966  43.0012 129.3321 0001820 278.1678  45.7739 15.85202377  2823"}}, "geometry": {"type": "Point", "coordinates": [-45.739968696679036, -6.225484941857342]}}]}